#aV2016  7  9  0  0  0.00000000     288 DD+AD WGS84 FIT  NGA
## 1904 518400.00000000   300.00000000 57578 0.0000000000000
+   31     1  2  3  5  6  7  8  9 10 11 12 13 14 15 16 17 18
+         19 20 21 22 23 24 25 26 27 28 29 30 31 32  0  0  0
+          0  0  0  0  0  0  0  0  0  0  0  0  0  0  0  0  0
+          0  0  0  0  0  0  0  0  0  0  0  0  0  0  0  0  0
+          0  0  0  0  0  0  0  0  0  0  0  0  0  0  0  0  0
++         2  2  2  2  2  2  2  2  2  2  2  2  2  2  2  2  2
++         2  2  2  2  2  2  2  2  2  2  2  2  2  2  0  0  0
++         0  0  0  0  0  0  0  0  0  0  0  0  0  0  0  0  0
++         0  0  0  0  0  0  0  0  0  0  0  0  0  0  0  0  0
++         0  0  0  0  0  0  0  0  0  0  0  0  0  0  0  0  0
%c cc cc ccc ccc cccc cccc cccc cccc ccccc ccccc ccccc ccccc
%c cc cc ccc ccc cccc cccc cccc cccc ccccc ccccc ccccc ccccc
%f  0.0000000  0.000000000  0.00000000000  0.000000000000000
%f  0.0000000  0.000000000  0.00000000000  0.000000000000000
%i    0    0    0    0      0      0      0      0         0
%i    0    0    0    0      0      0      0      0         0
/*      NGA, ST. LOUIS,MO.                                  
/*   EPHEMERIS COMPUTED FROM 2 DAYS OF DATA                 
/*   EPOCHA v2.4 SMOOTHER                                   
/*   G1762  SATAF SATAPC                                    
*  2016  7  9 22 30  0.00000000
P  1  22218.507288  14511.262432  -2956.796576     26.371453                    
V  1  -4353.516878    407.862367 -31400.197118      0.012721                    
P  2  -5636.655038 -18177.249524  19122.684311    578.117328                    
V  2  21483.247209   9065.452570  14925.862681     -0.038620                    
P  3  13315.901891  13745.669597  18424.105274    -71.691217                    
V  3   -866.475451  23420.432096 -16850.156682     -0.031107                    
P  5  -3703.592982 -25941.716934  -3670.819707   -106.641879                    
V  5   3212.567356  -4752.241940  31093.602471      0.028196                    
P  6   9855.487142 -11763.461234  21689.778111    216.351609                    
V  6  24078.759747  13287.881539  -3731.113561      0.053020                    
P  7  23524.654763   3887.094122 -11983.637309    443.081329                    
V  7  12306.212666   9269.874525  26432.811947     -0.025578                    
P  8   8799.676516  12332.600745 -21769.453176    -42.147503                    
V  8 -23476.363924  14785.809379  -1070.974207     -0.014056                    
P  9  23200.179230  -4355.575916  12178.754325    164.387754                    
V  9 -11806.470468  10332.037561  26143.165769      0.072438                    
P 10 -11155.679823  17325.965680 -16697.285583    -62.353358                    
V 10  -2567.179521 -21202.432107 -20328.733025     -0.073909                    
P 11  20660.190551  12172.397457 -12010.164585   -655.297456                    
V 11 -14915.725218   1968.355644 -24811.798429     -0.014117                    
P 12 -10767.782165 -17263.093134  17051.034132    384.887112                    
V 12   1650.623205 -21735.525118 -20595.135960      0.009387                    
P 13    724.288209 -16281.039903 -21111.240954    -30.124946                    
V 13  24247.759346 -10647.906205   9014.541523     -0.024513                    
P 14 -16847.370543  17338.883783  11083.905527    -23.734110                    
V 14 -13306.986081   4142.092465 -27518.487442     -0.019983                    
P 15 -12003.982525 -10878.210122 -21204.746478   -318.715263                    
V 15  21666.740326 -15643.308825  -3913.812653     -0.015586                    
P 16   1395.637779  26047.853002  -3846.699774     -5.731090                    
V 16  -2351.118690   4691.514288  32165.803320      0.022921                    
P 17  21204.413901 -15257.800940   4539.822983   -203.944276                    
V 17   5848.999169   -522.909053 -31538.039187      0.000701                    
P 18 -15304.821978   4600.726835 -20644.950240    534.833640                    
V 18  -2446.743019 -27557.870373  -4462.869586      0.038094                    
P 19  16121.608223 -17235.752419  12279.844550   -525.062191                    
V 19  15008.800859  -5373.745367 -26354.799523      0.002557                    
P 20 -13869.721504 -16303.708733 -15851.487582    423.307982                    
V 20    292.987806 -20144.281698  20696.767171      0.022168                    
P 21 -22775.709430   -710.940114 -13077.574285   -527.962914                    
V 21 -14621.776829 -10573.281334  24409.288750     -0.009057                    
P 22  10879.534254  20752.931118  12639.570855    300.673154                    
V 22  -2256.530729  15980.836782 -24888.193660     -0.090984                    
P 23  19146.480583   3770.731619  18410.894927   -181.507871                    
V 23 -18669.061333  13271.078019  16440.513218     -0.015390                    
P 24 -20563.335108 -15695.187375  -6518.059959    -19.886366                    
V 24   8582.602694   1148.098784 -29912.804038     -0.005915                    
P 25 -14684.416726  -4081.823678  21645.471212   -205.456190                    
V 25   -439.563240 -27710.184458  -5307.587416     -0.070011                    
P 26  -3976.944948  25282.913281   7006.793759   -418.934505                    
V 26  -3050.503699  -8810.594915  30080.604949     -0.101784                    
P 27  -3258.599760  17707.246000 -19505.335648    112.849381                    
V 27 -21624.964406  12018.432785  14718.342052      0.043544                    
P 28  12155.161512 -15287.035030 -17353.589914    536.029304                    
V 28    248.726354  23283.615452 -19677.408390      0.027011                    
P 29 -22103.842511    717.077827  14684.664280    655.706000                    
V 29  15557.260462 -10382.194894  23958.816889     -0.005374                    
P 30  18563.311708  -3982.406733 -18621.487657    138.636027                    
V 30  19183.603518  13874.604921  16051.619197      0.024229                    
P 31  -6817.040689  13419.673733  21975.566489    259.698443                    
V 31 -23999.665293 -13711.512295   1286.146329     -0.019635                    
P 32 -20118.396301  16618.420213   4912.914375    -44.129489                    
V 32  -6771.672172    909.897465 -30910.223511     -0.097808                    
EOF
